CCSDS_OMM_VERS = 2.0
CREATION_DATE  = 
ORIGINATOR     = 

OBJECT_NAME    = H-2A R/B
OBJECT_ID      = 2006-002B
CENTER_NAME    = EARTH
REF_FRAME      = TEME
TIME_SYSTEM    = UTC
MEAN_ELEMENT_THEORY = SGP/SGP4

EPOCH          = 2026-03-11T07:47:42.206784
MEAN_MOTION    = 15.16461973
ECCENTRICITY   = .00518632
INCLINATION    = 98.2415
RA_OF_ASC_NODE = 217.4890
ARG_OF_PERICENTER = 235.3293
MEAN_ANOMALY   = 124.3044

EPHEMERIS_TYPE = 0
CLASSIFICATION_TYPE = U
NORAD_CAT_ID   = 28932
ELEMENT_SET_NO = 999
REV_AT_EPOCH   = 9468
BSTAR          = .57586883E-3
MEAN_MOTION_DOT = .11526E-3
MEAN_MOTION_DDOT = 0

CCSDS_OMM_VERS = 2.0
CREATION_DATE  = 
ORIGINATOR     = 

OBJECT_NAME    = RESURS-DK 1
OBJECT_ID      = 2006-021A
CENTER_NAME    = EARTH
REF_FRAME      = TEME
TIME_SYSTEM    = UTC
MEAN_ELEMENT_THEORY = SGP/SGP4

EPOCH          = 2026-03-10T20:35:26.417760
MEAN_MOTION    = 15.12754122
ECCENTRICITY   = .00018033
INCLINATION    = 69.9325
RA_OF_ASC_NODE = 234.0005
ARG_OF_PERICENTER = 162.5581
MEAN_ANOMALY   = 197.5648

EPHEMERIS_TYPE = 0
CLASSIFICATION_TYPE = U
NORAD_CAT_ID   = 29228
ELEMENT_SET_NO = 999
REV_AT_EPOCH   = 8770
BSTAR          = .22500076E-3
MEAN_MOTION_DOT = .3848E-4
MEAN_MOTION_DDOT = 0

CCSDS_OMM_VERS = 2.0
CREATION_DATE  = 
ORIGINATOR     = 

OBJECT_NAME    = CZ-4B R/B
OBJECT_ID      = 2006-046C
CENTER_NAME    = EARTH
REF_FRAME      = TEME
TIME_SYSTEM    = UTC
MEAN_ELEMENT_THEORY = SGP/SGP4

EPOCH          = 2026-03-11T03:02:02.269824
MEAN_MOTION    = 15.16922415
ECCENTRICITY   = .0031668
INCLINATION    = 97.5598
RA_OF_ASC_NODE = 115.0318
ARG_OF_PERICENTER = 262.0381
MEAN_ANOMALY   = 97.7257

EPHEMERIS_TYPE = 0
CLASSIFICATION_TYPE = U
NORAD_CAT_ID   = 29507
ELEMENT_SET_NO = 999
REV_AT_EPOCH   = 6026
BSTAR          = .2850231E-3
MEAN_MOTION_DOT = .5621E-4
MEAN_MOTION_DDOT = 0

CCSDS_OMM_VERS = 2.0
CREATION_DATE  = 
ORIGINATOR     = 

OBJECT_NAME    = CZ-2C R/B
OBJECT_ID      = 2007-010B
CENTER_NAME    = EARTH
REF_FRAME      = TEME
TIME_SYSTEM    = UTC
MEAN_ELEMENT_THEORY = SGP/SGP4

EPOCH          = 2026-03-11T06:37:08.766624
MEAN_MOTION    = 14.20246900
ECCENTRICITY   = .00578782
INCLINATION    = 98.3979
RA_OF_ASC_NODE = 183.4749
ARG_OF_PERICENTER = 289.8989
MEAN_ANOMALY   = 69.5959

EPHEMERIS_TYPE = 0
CLASSIFICATION_TYPE = U
NORAD_CAT_ID   = 31114
ELEMENT_SET_NO = 999
REV_AT_EPOCH   = 97994
BSTAR          = .95897557E-4
MEAN_MOTION_DOT = .167E-5
MEAN_MOTION_DDOT = 0

CCSDS_OMM_VERS = 2.0
CREATION_DATE  = 
ORIGINATOR     = 

OBJECT_NAME    = COSMO-SKYMED 1
OBJECT_ID      = 2007-023A
CENTER_NAME    = EARTH
REF_FRAME      = TEME
TIME_SYSTEM    = UTC
MEAN_ELEMENT_THEORY = SGP/SGP4

EPOCH          = 2026-03-11T06:27:35.777376
MEAN_MOTION    = 14.96549270
ECCENTRICITY   = .00013931
INCLINATION    = 97.8876
RA_OF_ASC_NODE = 261.3134
ARG_OF_PERICENTER = 99.5754
MEAN_ANOMALY   = 260.5625

EPHEMERIS_TYPE = 0
CLASSIFICATION_TYPE = U
NORAD_CAT_ID   = 31598
ELEMENT_SET_NO = 999
REV_AT_EPOCH   = 1514
BSTAR          = .377947E-3
MEAN_MOTION_DOT = .424E-4
MEAN_MOTION_DDOT = 0

CCSDS_OMM_VERS = 2.0
CREATION_DATE  = 
ORIGINATOR     = 

OBJECT_NAME    = COSMOS 2428
OBJECT_ID      = 2007-029A
CENTER_NAME    = EARTH
REF_FRAME      = TEME
TIME_SYSTEM    = UTC
MEAN_ELEMENT_THEORY = SGP/SGP4

EPOCH          = 2026-03-11T07:18:37.191168
MEAN_MOTION    = 14.12946507
ECCENTRICITY   = .00091705
INCLINATION    = 70.9434
RA_OF_ASC_NODE = 199.9534
ARG_OF_PERICENTER = 275.4913
MEAN_ANOMALY   = 84.5162

EPHEMERIS_TYPE = 0
CLASSIFICATION_TYPE = U
NORAD_CAT_ID   = 31792
ELEMENT_SET_NO = 999
REV_AT_EPOCH   = 96432
BSTAR          = .5427213E-4
MEAN_MOTION_DOT = .53E-6
MEAN_MOTION_DDOT = 0

CCSDS_OMM_VERS = 2.0
CREATION_DATE  = 
ORIGINATOR     = 

OBJECT_NAME    = SL-16 R/B
OBJECT_ID      = 2007-029B
CENTER_NAME    = EARTH
REF_FRAME      = TEME
TIME_SYSTEM    = UTC
MEAN_ELEMENT_THEORY = SGP/SGP4

EPOCH          = 2026-03-11T07:55:44.482944
MEAN_MOTION    = 14.14833769
ECCENTRICITY   = .00023001
INCLINATION    = 70.9759
RA_OF_ASC_NODE = 168.9364
ARG_OF_PERICENTER = 275.9429
MEAN_ANOMALY   = 140.9811

EPHEMERIS_TYPE = 0
CLASSIFICATION_TYPE = U
NORAD_CAT_ID   = 31793
ELEMENT_SET_NO = 999
REV_AT_EPOCH   = 96560
BSTAR          = .80316738E-4
MEAN_MOTION_DOT = .107E-5
MEAN_MOTION_DDOT = 0

CCSDS_OMM_VERS = 2.0
CREATION_DATE  = 
ORIGINATOR     = 

OBJECT_NAME    = CZ-2C R/B
OBJECT_ID      = 2011-030B
CENTER_NAME    = EARTH
REF_FRAME      = TEME
TIME_SYSTEM    = UTC
MEAN_ELEMENT_THEORY = SGP/SGP4

EPOCH          = 2026-03-11T07:39:27.076896
MEAN_MOTION    = 14.81230291
ECCENTRICITY   = .00522344
INCLINATION    = 97.8544
RA_OF_ASC_NODE = 27.5494
ARG_OF_PERICENTER = 346.7969
MEAN_ANOMALY   = 171.9733

EPHEMERIS_TYPE = 0
CLASSIFICATION_TYPE = U
NORAD_CAT_ID   = 37731
ELEMENT_SET_NO = 999
REV_AT_EPOCH   = 79033
BSTAR          = .27059929E-3
MEAN_MOTION_DOT = .2102E-4
MEAN_MOTION_DDOT = 0

CCSDS_OMM_VERS = 2.0
CREATION_DATE  = 
ORIGINATOR     = 

OBJECT_NAME    = H-2A R/B
OBJECT_ID      = 2012-025E
CENTER_NAME    = EARTH
REF_FRAME      = TEME
TIME_SYSTEM    = UTC
MEAN_ELEMENT_THEORY = SGP/SGP4

EPOCH          = 2026-03-11T06:25:37.816320
MEAN_MOTION    = 14.95185438
ECCENTRICITY   = .00432573
INCLINATION    = 98.4739
RA_OF_ASC_NODE = 37.4406
ARG_OF_PERICENTER = 309.1902
MEAN_ANOMALY   = 50.5478

EPHEMERIS_TYPE = 0
CLASSIFICATION_TYPE = U
NORAD_CAT_ID   = 38341
ELEMENT_SET_NO = 999
REV_AT_EPOCH   = 74845
BSTAR          = .38043931E-3
MEAN_MOTION_DOT = .4188E-4
MEAN_MOTION_DDOT = 0

CCSDS_OMM_VERS = 2.0
CREATION_DATE  = 
ORIGINATOR     = 

OBJECT_NAME    = SHIJIAN-16 (SJ-16)
OBJECT_ID      = 2013-057A
CENTER_NAME    = EARTH
REF_FRAME      = TEME
TIME_SYSTEM    = UTC
MEAN_ELEMENT_THEORY = SGP/SGP4

EPOCH          = 2026-03-11T07:19:12.495936
MEAN_MOTION    = 14.92357457
ECCENTRICITY   = .00154703
INCLINATION    = 74.9727
RA_OF_ASC_NODE = 182.0302
ARG_OF_PERICENTER = 108.0962
MEAN_ANOMALY   = 252.1912

EPHEMERIS_TYPE = 0
CLASSIFICATION_TYPE = U
NORAD_CAT_ID   = 39358
ELEMENT_SET_NO = 999
REV_AT_EPOCH   = 67174
BSTAR          = .41494559E-3
MEAN_MOTION_DOT = .4227E-4
MEAN_MOTION_DDOT = 0

CCSDS_OMM_VERS = 2.0
CREATION_DATE  = 
ORIGINATOR     = 

OBJECT_NAME    = SL-4 R/B
OBJECT_ID      = 2014-021B
CENTER_NAME    = EARTH
REF_FRAME      = TEME
TIME_SYSTEM    = UTC
MEAN_ELEMENT_THEORY = SGP/SGP4

EPOCH          = 2026-03-11T02:56:01.041792
MEAN_MOTION    = 15.39237531
ECCENTRICITY   = .00973583
INCLINATION    = 51.6080
RA_OF_ASC_NODE = 330.2898
ARG_OF_PERICENTER = 108.2387
MEAN_ANOMALY   = 252.9222

EPHEMERIS_TYPE = 0
CLASSIFICATION_TYPE = U
NORAD_CAT_ID   = 39679
ELEMENT_SET_NO = 999
REV_AT_EPOCH   = 65649
BSTAR          = .41035423E-3
MEAN_MOTION_DOT = .18747E-3
MEAN_MOTION_DDOT = 0

